SL-14 R/B               
1 18749U 88001B   25330.88089670  .00000639  00000+0  71301-4 0  9998
2 18749  82.5118 292.0649 0017090 214.2540 145.7575 14.85397976 26767
COSMOS 1933             
1 18958U 88020A   25330.59239258  .00004899  00000+0  24702-3 0  9992
2 18958  82.5140 352.8319 0004328 176.1884 183.9383 15.16922753 34593
SL-3 R/B                
1 19046U 88032B   25330.91579912  .00006083  00000+0  29583-3 0  9993
2 19046  97.5072 309.7500 0025160 229.7146 130.1889 15.18505800 36508
SL-16 R/B               
1 19120U 88039B   25330.32890901  .00000033  00000+0  38226-4 0  9996
2 19120  71.0145 287.0970 0020356 143.6429 216.6084 14.19592811943713
COSMOS 1953             
1 19210U 88050A   25330.84399778  .00006666  00000+0  25231-3 0  9991
2 19210  82.5085 261.5269 0013558 119.6716 240.5874 15.26661590 22080
SL-8 R/B                
1 19257U 88053B   25330.42060626  .00000285  00000+0  10079-3 0  9991
2 19257  74.0469 302.7968 0019457 152.5611 324.9684 14.38844398961743
COSMOS 1975             
1 19573U 88093A   25330.78417180  .00010817  00000+0  41711-3 0  9995
2 19573  82.5208 220.7956 0011554 163.3503 196.8117 15.26123244  3703
SL-14 R/B               
1 19574U 88093B   25330.88868295  .00000607  00000+0  67202-4 0  9994
2 19574  82.5291 138.5426 0021289  22.3050  91.8577 14.85523609985774
SL-16 R/B               
1 19650U 88102B   25330.63603053  .00000197  00000+0  12387-3 0  9999
2 19650  71.0010   8.3280 0013873 177.4937 182.6258 14.16136131912307
INTERCOSMOS 24          
1 20261U 89080A   25330.61564304  .00000982  00000+0  28479-3 0  9999
2 20261  82.6050 171.4371 1188564 171.9160 190.3146 12.59398148653824
SL-14 R/B               
1 20262U 89080C   25330.82282085  .00000501  00000+0  14277-3 0  9994
2 20262  82.5941 239.2352 1230928  59.9568 311.7886 12.50394189647290
DELTA 1 R/B             
1 20323U 89089B   25330.63632886  .00000442  00000+0  11781-3 0  9999
2 20323  97.0764 189.4250 0070740  88.2256 272.7043 14.50552644880796
