CCSDS_OMM_VERS = 2.0
CREATION_DATE  = 
ORIGINATOR     = 

OBJECT_NAME    = SL-14 R/B
OBJECT_ID      = 1988-001B
CENTER_NAME    = EARTH
REF_FRAME      = TEME
TIME_SYSTEM    = UTC
MEAN_ELEMENT_THEORY = SGP/SGP4

EPOCH          = 2025-11-26T21:08:29.474880
MEAN_MOTION    = 14.85397976
ECCENTRICITY   = .00170905
INCLINATION    = 82.5118
RA_OF_ASC_NODE = 292.0649
ARG_OF_PERICENTER = 214.2540
MEAN_ANOMALY   = 145.7575

EPHEMERIS_TYPE = 0
CLASSIFICATION_TYPE = U
NORAD_CAT_ID   = 18749
ELEMENT_SET_NO = 999
REV_AT_EPOCH   = 2676
BSTAR          = .71300612E-4
MEAN_MOTION_DOT = .639E-5
MEAN_MOTION_DDOT = 0

CCSDS_OMM_VERS = 2.0
CREATION_DATE  = 
ORIGINATOR     = 

OBJECT_NAME    = COSMOS 1933
OBJECT_ID      = 1988-020A
CENTER_NAME    = EARTH
REF_FRAME      = TEME
TIME_SYSTEM    = UTC
MEAN_ELEMENT_THEORY = SGP/SGP4

EPOCH          = 2025-11-26T14:13:02.718912
MEAN_MOTION    = 15.16922753
ECCENTRICITY   = .00043289
INCLINATION    = 82.5140
RA_OF_ASC_NODE = 352.8319
ARG_OF_PERICENTER = 176.1884
MEAN_ANOMALY   = 183.9383

EPHEMERIS_TYPE = 0
CLASSIFICATION_TYPE = U
NORAD_CAT_ID   = 18958
ELEMENT_SET_NO = 999
REV_AT_EPOCH   = 3459
BSTAR          = .2470229E-3
MEAN_MOTION_DOT = .4899E-4
MEAN_MOTION_DDOT = 0

CCSDS_OMM_VERS = 2.0
CREATION_DATE  = 
ORIGINATOR     = 

OBJECT_NAME    = SL-3 R/B
OBJECT_ID      = 1988-032B
CENTER_NAME    = EARTH
REF_FRAME      = TEME
TIME_SYSTEM    = UTC
MEAN_ELEMENT_THEORY = SGP/SGP4

EPOCH          = 2025-11-26T21:58:45.043968
MEAN_MOTION    = 15.18505800
ECCENTRICITY   = .00251607
INCLINATION    = 97.5072
RA_OF_ASC_NODE = 309.7500
ARG_OF_PERICENTER = 229.7146
MEAN_ANOMALY   = 130.1889

EPHEMERIS_TYPE = 0
CLASSIFICATION_TYPE = U
NORAD_CAT_ID   = 19046
ELEMENT_SET_NO = 999
REV_AT_EPOCH   = 3650
BSTAR          = .29582835E-3
MEAN_MOTION_DOT = .6083E-4
MEAN_MOTION_DDOT = 0

CCSDS_OMM_VERS = 2.0
CREATION_DATE  = 
ORIGINATOR     = 

OBJECT_NAME    = SL-16 R/B
OBJECT_ID      = 1988-039B
CENTER_NAME    = EARTH
REF_FRAME      = TEME
TIME_SYSTEM    = UTC
MEAN_ELEMENT_THEORY = SGP/SGP4

EPOCH          = 2025-11-26T07:53:37.738464
MEAN_MOTION    = 14.19592811
ECCENTRICITY   = .00203569
INCLINATION    = 71.0145
RA_OF_ASC_NODE = 287.0970
ARG_OF_PERICENTER = 143.6429
MEAN_ANOMALY   = 216.6084

EPHEMERIS_TYPE = 0
CLASSIFICATION_TYPE = U
NORAD_CAT_ID   = 19120
ELEMENT_SET_NO = 999
REV_AT_EPOCH   = 94371
BSTAR          = .38225624E-4
MEAN_MOTION_DOT = .33E-6
MEAN_MOTION_DDOT = 0

CCSDS_OMM_VERS = 2.0
CREATION_DATE  = 
ORIGINATOR     = 

OBJECT_NAME    = COSMOS 1953
OBJECT_ID      = 1988-050A
CENTER_NAME    = EARTH
REF_FRAME      = TEME
TIME_SYSTEM    = UTC
MEAN_ELEMENT_THEORY = SGP/SGP4

EPOCH          = 2025-11-26T20:15:21.408192
MEAN_MOTION    = 15.26661590
ECCENTRICITY   = .00135584
INCLINATION    = 82.5085
RA_OF_ASC_NODE = 261.5269
ARG_OF_PERICENTER = 119.6716
MEAN_ANOMALY   = 240.5874

EPHEMERIS_TYPE = 0
CLASSIFICATION_TYPE = U
NORAD_CAT_ID   = 19210
ELEMENT_SET_NO = 999
REV_AT_EPOCH   = 2208
BSTAR          = .2523116E-3
MEAN_MOTION_DOT = .6666E-4
MEAN_MOTION_DDOT = 0

CCSDS_OMM_VERS = 2.0
CREATION_DATE  = 
ORIGINATOR     = 

OBJECT_NAME    = SL-8 R/B
OBJECT_ID      = 1988-053B
CENTER_NAME    = EARTH
REF_FRAME      = TEME
TIME_SYSTEM    = UTC
MEAN_ELEMENT_THEORY = SGP/SGP4

EPOCH          = 2025-11-26T10:05:40.380864
MEAN_MOTION    = 14.38844398
ECCENTRICITY   = .00194578
INCLINATION    = 74.0469
RA_OF_ASC_NODE = 302.7968
ARG_OF_PERICENTER = 152.5611
MEAN_ANOMALY   = 324.9684

EPHEMERIS_TYPE = 0
CLASSIFICATION_TYPE = U
NORAD_CAT_ID   = 19257
ELEMENT_SET_NO = 999
REV_AT_EPOCH   = 96174
BSTAR          = .10078736E-3
MEAN_MOTION_DOT = .285E-5
MEAN_MOTION_DDOT = 0

CCSDS_OMM_VERS = 2.0
CREATION_DATE  = 
ORIGINATOR     = 

OBJECT_NAME    = COSMOS 1975
OBJECT_ID      = 1988-093A
CENTER_NAME    = EARTH
REF_FRAME      = TEME
TIME_SYSTEM    = UTC
MEAN_ELEMENT_THEORY = SGP/SGP4

EPOCH          = 2025-11-26T18:49:12.443520
MEAN_MOTION    = 15.26123244
ECCENTRICITY   = .00115549
INCLINATION    = 82.5208
RA_OF_ASC_NODE = 220.7956
ARG_OF_PERICENTER = 163.3503
MEAN_ANOMALY   = 196.8117

EPHEMERIS_TYPE = 0
CLASSIFICATION_TYPE = U
NORAD_CAT_ID   = 19573
ELEMENT_SET_NO = 999
REV_AT_EPOCH   = 370
BSTAR          = .41711449E-3
MEAN_MOTION_DOT = .10817E-3
MEAN_MOTION_DDOT = 0

CCSDS_OMM_VERS = 2.0
CREATION_DATE  = 
ORIGINATOR     = 

OBJECT_NAME    = SL-14 R/B
OBJECT_ID      = 1988-093B
CENTER_NAME    = EARTH
REF_FRAME      = TEME
TIME_SYSTEM    = UTC
MEAN_ELEMENT_THEORY = SGP/SGP4

EPOCH          = 2025-11-26T21:19:42.206880
MEAN_MOTION    = 14.85523609
ECCENTRICITY   = .00212894
INCLINATION    = 82.5291
RA_OF_ASC_NODE = 138.5426
ARG_OF_PERICENTER = 22.3050
MEAN_ANOMALY   = 91.8577

EPHEMERIS_TYPE = 0
CLASSIFICATION_TYPE = U
NORAD_CAT_ID   = 19574
ELEMENT_SET_NO = 999
REV_AT_EPOCH   = 98577
BSTAR          = .6720198E-4
MEAN_MOTION_DOT = .607E-5
MEAN_MOTION_DDOT = 0

CCSDS_OMM_VERS = 2.0
CREATION_DATE  = 
ORIGINATOR     = 

OBJECT_NAME    = SL-16 R/B
OBJECT_ID      = 1988-102B
CENTER_NAME    = EARTH
REF_FRAME      = TEME
TIME_SYSTEM    = UTC
MEAN_ELEMENT_THEORY = SGP/SGP4

EPOCH          = 2025-11-26T15:15:53.037792
MEAN_MOTION    = 14.16136131
ECCENTRICITY   = .00138731
INCLINATION    = 71.0010
RA_OF_ASC_NODE = 8.3280
ARG_OF_PERICENTER = 177.4937
MEAN_ANOMALY   = 182.6258

EPHEMERIS_TYPE = 0
CLASSIFICATION_TYPE = U
NORAD_CAT_ID   = 19650
ELEMENT_SET_NO = 999
REV_AT_EPOCH   = 91230
BSTAR          = .12386911E-3
MEAN_MOTION_DOT = .197E-5
MEAN_MOTION_DDOT = 0

CCSDS_OMM_VERS = 2.0
CREATION_DATE  = 
ORIGINATOR     = 

OBJECT_NAME    = INTERCOSMOS 24
OBJECT_ID      = 1989-080A
CENTER_NAME    = EARTH
REF_FRAME      = TEME
TIME_SYSTEM    = UTC
MEAN_ELEMENT_THEORY = SGP/SGP4

EPOCH          = 2025-11-26T14:46:31.558656
MEAN_MOTION    = 12.59398148
ECCENTRICITY   = .11885649
INCLINATION    = 82.6050
RA_OF_ASC_NODE = 171.4371
ARG_OF_PERICENTER = 171.9160
MEAN_ANOMALY   = 190.3146

EPHEMERIS_TYPE = 0
CLASSIFICATION_TYPE = U
NORAD_CAT_ID   = 20261
ELEMENT_SET_NO = 999
REV_AT_EPOCH   = 65382
BSTAR          = .28479256E-3
MEAN_MOTION_DOT = .982E-5
MEAN_MOTION_DDOT = 0

CCSDS_OMM_VERS = 2.0
CREATION_DATE  = 
ORIGINATOR     = 

OBJECT_NAME    = SL-14 R/B
OBJECT_ID      = 1989-080C
CENTER_NAME    = EARTH
REF_FRAME      = TEME
TIME_SYSTEM    = UTC
MEAN_ELEMENT_THEORY = SGP/SGP4

EPOCH          = 2025-11-26T19:44:51.721440
MEAN_MOTION    = 12.50394189
ECCENTRICITY   = .12309284
INCLINATION    = 82.5941
RA_OF_ASC_NODE = 239.2352
ARG_OF_PERICENTER = 59.9568
MEAN_ANOMALY   = 311.7886

EPHEMERIS_TYPE = 0
CLASSIFICATION_TYPE = U
NORAD_CAT_ID   = 20262
ELEMENT_SET_NO = 999
REV_AT_EPOCH   = 64729
BSTAR          = .14277087E-3
MEAN_MOTION_DOT = .501E-5
MEAN_MOTION_DDOT = 0

CCSDS_OMM_VERS = 2.0
CREATION_DATE  = 
ORIGINATOR     = 

OBJECT_NAME    = DELTA 1 R/B
OBJECT_ID      = 1989-089B
CENTER_NAME    = EARTH
REF_FRAME      = TEME
TIME_SYSTEM    = UTC
MEAN_ELEMENT_THEORY = SGP/SGP4

EPOCH          = 2025-11-26T15:16:18.813504
MEAN_MOTION    = 14.50552644
ECCENTRICITY   = .00707405
INCLINATION    = 97.0764
RA_OF_ASC_NODE = 189.4250
ARG_OF_PERICENTER = 88.2256
MEAN_ANOMALY   = 272.7043

EPHEMERIS_TYPE = 0
CLASSIFICATION_TYPE = U
NORAD_CAT_ID   = 20323
ELEMENT_SET_NO = 999
REV_AT_EPOCH   = 88079
BSTAR          = .1178053E-3
MEAN_MOTION_DOT = .442E-5
MEAN_MOTION_DDOT = 0

